{
  "type": "FeatureCollection",
  "features": [
    {
      "type": "Feature",
      "properties": {
        "norad_id": 66660,
        "name": "K-HERO",
        "group": "last-30-days",
        "lat": -59.97045854427145,
        "lon": 85.27128654235007,
        "alt_km": 587.6802221424714,
        "timestamp": "2025-12-17T17:50:17.973466+00:00",
        "meta_object_name": "K-HERO",
        "meta_object_id": "2025-274L",
        "meta_epoch": "2025-12-17T07:06:39.240864",
        "meta_mean_motion": 14.92988627,
        "meta_eccentricity": 0.0012493,
        "meta_inclination": 97.7403,
        "meta_ra_of_asc_node": 278.4411,
        "meta_arg_of_pericenter": 263.9553,
        "meta_mean_anomaly": 96.0243,
        "meta_ephemeris_type": 0,
        "meta_classification_type": "U",
        "meta_norad_cat_id": 66660,
        "meta_element_set_no": 999,
        "meta_rev_at_epoch": 308,
        "meta_bstar": 0.000262489,
        "meta_mean_motion_dot": 2.675e-05,
        "meta_mean_motion_ddot": 0,
        "tle_line1": "1 66660U 25274L   25351.29628751  .00002675  00000+0  26249-3 0  9995",
        "tle_line2": "2 66660  97.7403 278.4411 0012493 263.9553  96.0243 14.92988627  3086"
      },
      "geometry": {
        "type": "Point",
        "coordinates": [
          85.27128654235007,
          -59.97045854427145
        ]
      }
    },
    {
      "type": "Feature",
      "properties": {
        "norad_id": 66661,
        "name": "SNUGLITE-III",
        "group": "last-30-days",
        "lat": -70.40400527966,
        "lon": 76.42473698415958,
        "alt_km": 586.5484043847964,
        "timestamp": "2025-12-17T17:50:17.973476+00:00",
        "meta_object_name": "SNUGLITE-III",
        "meta_object_id": "2025-274M",
        "meta_epoch": "2025-12-17T07:03:44.887392",
        "meta_mean_motion": 14.93123227,
        "meta_eccentricity": 0.00131135,
        "meta_inclination": 97.7399,
        "meta_ra_of_asc_node": 278.4429,
        "meta_arg_of_pericenter": 265.223,
        "meta_mean_anomaly": 94.7493,
        "meta_ephemeris_type": 0,
        "meta_classification_type": "U",
        "meta_norad_cat_id": 66661,
        "meta_element_set_no": 999,
        "meta_rev_at_epoch": 308,
        "meta_bstar": 0.00023165098,
        "meta_mean_motion_dot": 2.362e-05,
        "meta_mean_motion_ddot": 0,
        "tle_line1": "1 66661U 25274M   25351.29426953  .00002362  00000+0  23165-3 0  9993",
        "tle_line2": "2 66661  97.7399 278.4429 0013113 265.2230  94.7493 14.93123227  3087"
      },
      "geometry": {
        "type": "Point",
        "coordinates": [
          76.42473698415958,
          -70.40400527966
        ]
      }
    },
    {
      "type": "Feature",
      "properties": {
        "norad_id": 66662,
        "name": "2025-274N",
        "group": "last-30-days",
        "lat": -74.27813585528051,
        "lon": 69.99523521087697,
        "alt_km": 585.9899865686475,
        "timestamp": "2025-12-17T17:50:17.973488+00:00",
        "meta_object_name": "2025-274N",
        "meta_object_id": "2025-274N",
        "meta_epoch": "2025-12-17T07:02:36.581280",
        "meta_mean_motion": 14.93177593,
        "meta_eccentricity": 0.00135404,
        "meta_inclination": 97.7399,
        "meta_ra_of_asc_node": 278.4442,
        "meta_arg_of_pericenter": 264.817,
        "meta_mean_anomaly": 95.1505,
        "meta_ephemeris_type": 0,
        "meta_classification_type": "U",
        "meta_norad_cat_id": 66662,
        "meta_element_set_no": 999,
        "meta_rev_at_epoch": 308,
        "meta_bstar": 0.00024747448,
        "meta_mean_motion_dot": 2.531e-05,
        "meta_mean_motion_ddot": 0,
        "tle_line1": "1 66662U 25274N   25351.29347895  .00002531  00000+0  24747-3 0  9996",
        "tle_line2": "2 66662  97.7399 278.4442 0013540 264.8170  95.1505 14.93177593  3089"
      },
      "geometry": {
        "type": "Point",
        "coordinates": [
          69.99523521087697,
          -74.27813585528051
        ]
      }
    },
    {
      "type": "Feature",
      "properties": {
        "norad_id": 66663,
        "name": "KSLV-II R/B",
        "group": "last-30-days",
        "lat": -33.03232148506638,
        "lon": 93.96359348540219,
        "alt_km": 580.3739087122904,
        "timestamp": "2025-12-17T17:50:17.973498+00:00",
        "meta_object_name": "KSLV-II R/B",
        "meta_object_id": "2025-274P",
        "meta_epoch": "2025-12-16T16:49:36.043104",
        "meta_mean_motion": 14.97367588,
        "meta_eccentricity": 0.00548465,
        "meta_inclination": 97.7431,
        "meta_ra_of_asc_node": 278.0066,
        "meta_arg_of_pericenter": 305.8627,
        "meta_mean_anomaly": 53.7508,
        "meta_ephemeris_type": 0,
        "meta_classification_type": "U",
        "meta_norad_cat_id": 66663,
        "meta_element_set_no": 999,
        "meta_rev_at_epoch": 300,
        "meta_bstar": 0.00058875803,
        "meta_mean_motion_dot": 6.993e-05,
        "meta_mean_motion_ddot": 0,
        "tle_line1": "1 66663U 25274P   25350.70111161  .00006993  00000+0  58876-3 0  9993",
        "tle_line2": "2 66663  97.7431 278.0066 0054846 305.8627  53.7508 14.97367588  3006"
      },
      "geometry": {
        "type": "Point",
        "coordinates": [
          93.96359348540219,
          -33.03232148506638
        ]
      }
    },
    {
      "type": "Feature",
      "properties": {
        "norad_id": 66664,
        "name": "SOYUZ-MS 28",
        "group": "last-30-days",
        "lat": -42.683396898777005,
        "lon": -15.357750559131702,
        "alt_km": 420.1186850346703,
        "timestamp": "2025-12-17T17:50:17.973511+00:00",
        "meta_object_name": "SOYUZ-MS 28",
        "meta_object_id": "2025-275A",
        "meta_epoch": "2025-12-17T01:19:48.717408",
        "meta_mean_motion": 15.49629327,
        "meta_eccentricity": 0.00031735,
        "meta_inclination": 51.6309,
        "meta_ra_of_asc_node": 121.1077,
        "meta_arg_of_pericenter": 260.4156,
        "meta_mean_anomaly": 99.6474,
        "meta_ephemeris_type": 0,
        "meta_classification_type": "U",
        "meta_norad_cat_id": 66664,
        "meta_element_set_no": 999,
        "meta_rev_at_epoch": 128,
        "meta_bstar": 0.00014583435,
        "meta_mean_motion_dot": 7.77e-05,
        "meta_mean_motion_ddot": 0,
        "tle_line1": "1 66664U 25275A   25351.05542497  .00007770  00000+0  14583-3 0  9995",
        "tle_line2": "2 66664  51.6309 121.1077 0003173 260.4156  99.6474 15.49629327  1289"
      },
      "geometry": {
        "type": "Point",
        "coordinates": [
          -15.357750559131702,
          -42.683396898777005
        ]
      }
    },
    {
      "type": "Feature",
      "properties": {
        "norad_id": 66791,
        "name": "STARLINK-35867",
        "group": "last-30-days",
        "lat": 42.92428727070641,
        "lon": -51.985244703767734,
        "alt_km": 341.31430027062197,
        "timestamp": "2025-12-17T17:50:17.973523+00:00",
        "meta_object_name": "STARLINK-35867",
        "meta_object_id": "2025-278A",
        "meta_epoch": "2025-12-17T08:00:04.999680",
        "meta_mean_motion": 15.75453274,
        "meta_eccentricity": 0.00015476,
        "meta_inclination": 42.9993,
        "meta_ra_of_asc_node": 224.0275,
        "meta_arg_of_pericenter": 265.0976,
        "meta_mean_anomaly": 15.7737,
        "meta_ephemeris_type": 0,
        "meta_classification_type": "U",
        "meta_norad_cat_id": 66791,
        "meta_element_set_no": 999,
        "meta_rev_at_epoch": 369,
        "meta_bstar": -0.010134836,
        "meta_mean_motion_dot": -0.01406257,
        "meta_mean_motion_ddot": 0,
        "tle_line1": "1 66791U 25278A   25351.33339120 -.01406257  00000+0 -10135-1 0  9990",
        "tle_line2": "2 66791  42.9993 224.0275 0001547 265.0976  15.7737 15.75453274  3692"
      },
      "geometry": {
        "type": "Point",
        "coordinates": [
          -51.985244703767734,
          42.92428727070641
        ]
      }
    },
    {
      "type": "Feature",
      "properties": {
        "norad_id": 66792,
        "name": "STARLINK-35990",
        "group": "last-30-days",
        "lat": 42.974906906435514,
        "lon": -49.36444043026475,
        "alt_km": 341.5527797301511,
        "timestamp": "2025-12-17T17:50:17.973534+00:00",
        "meta_object_name": "STARLINK-35990",
        "meta_object_id": "2025-278B",
        "meta_epoch": "2025-12-17T08:00:04.999680",
        "meta_mean_motion": 15.75454901,
        "meta_eccentricity": 0.00019532,
        "meta_inclination": 42.9993,
        "meta_ra_of_asc_node": 224.023,
        "meta_arg_of_pericenter": 276.0809,
        "meta_mean_anomaly": 6.7027,
        "meta_ephemeris_type": 0,
        "meta_classification_type": "U",
        "meta_norad_cat_id": 66792,
        "meta_element_set_no": 999,
        "meta_rev_at_epoch": 369,
        "meta_bstar": -0.010131486,
        "meta_mean_motion_dot": -0.01406185,
        "meta_mean_motion_ddot": 0,
        "tle_line1": "1 66792U 25278B   25351.33339120 -.01406185  00000+0 -10131-1 0  9997",
        "tle_line2": "2 66792  42.9993 224.0230 0001953 276.0809   6.7027 15.75454901  3692"
      },
      "geometry": {
        "type": "Point",
        "coordinates": [
          -49.36444043026475,
          42.974906906435514
        ]
      }
    }
  ]
}